NORAD_CAT_ID,OBJECT_NAME,OBJECT_TYPE,EPOCH,MEAN_MOTION,ECCENTRICITY,INCLINATION,RA_OF_ASC_NODE,ARG_OF_PERICENTER,MEAN_ANOMALY,BSTAR,MEAN_MOTION_DOT,MEAN_MOTION_DDOT,TLE_LINE0,TLE_LINE1,TLE_LINE2,SEMIMAJOR_AXIS,PERIOD,APOGEE,PERIGEE,DECAYED
53745.0,STARLINK-4656,PAYLOAD,2023-01-10 19:13:39,15.08837971,0.0001908,53.2172,44.25,42.3872,317.7267,0.00012138,1.644e-05,0.0,0 STARLINK-4656,1 53745U 22107AX  23010.80115450  .00001644  00000-0  12138-3 0  9999,2 53745  53.2172  44.2500 0001908  42.3872 317.7267 15.08837971 20391,6917.887,95.438,541.072,538.432,0.0
53745.0,STARLINK-4656,PAYLOAD,2023-01-11 12:42:54,15.08848689,0.0001973,53.2187,40.9792,45.0823,315.0329,0.00033963,5.123e-05,0.0,0 STARLINK-4656,1 53745U 22107AX  23011.52979220  .00005123  00000-0  33963-3 0  9997,2 53745  53.2187  40.9792 0001973  45.0823 315.0329 15.08848689 19724,6917.854,95.437,541.0840000000002,538.354,0.0
53745.0,STARLINK-4656,PAYLOAD,2023-01-11 19:04:26,15.08843487,0.0001884,53.2187,39.7899,51.3121,308.8039,0.00018839,2.712e-05,0.0,0 STARLINK-4656,1 53745U 22107AX  23011.79475376  .00002712  00000-0  18839-3 0  9995,2 53745  53.2187  39.7899 0001884  51.3121 308.8039 15.08843487 20541,6917.87,95.437,541.038,538.431,0.0
53745.0,STARLINK-4656,PAYLOAD,2023-01-12 01:25:59,15.08837288,0.0001645,53.2182,38.5992,58.0259,302.0893,8.1108e-05,1.003e-05,0.0,0 STARLINK-4656,1 53745U 22107AX  23012.05971605  .00001003  00000-0  81108-4 0  9993,2 53745  53.2182  38.5992 0001645  58.0259 302.0893 15.08837288 19801,6917.889,95.438,540.8919999999998,538.616,0.0
53745.0,STARLINK-4656,PAYLOAD,2023-01-12 18:55:13,15.08840782,0.0001738,53.2188,35.3298,59.3828,300.7335,8.3967e-05,1.049e-05,0.0,0 STARLINK-4656,1 53745U 22107AX  23012.78835516  .00001049  00000-0  83967-4 0  9998,2 53745  53.2188  35.3298 0001738  59.3828 300.7335 15.08840782 20698,6917.8780000000015,95.438,540.945,538.5409999999998,0.0
53745.0,STARLINK-4656,PAYLOAD,2023-01-13 07:38:19,15.08839826,0.0001666999999999,53.2205,32.9504,68.3031,291.8138,0.00010614,1.402e-05,0.0,0 STARLINK-4656,1 53745U 22107AX  23013.31827795  .00001402  00000-0  10614-3 0  9999,2 53745  53.2205  32.9504 0001667  68.3031 291.8138 15.08839826 19997,6917.880999999999,95.438,540.899,538.5930000000001,0.0
53745.0,STARLINK-4656,PAYLOAD,2023-01-13 18:46:01,15.08843185,0.0001564,53.2191,30.8698,69.7683,290.3477,0.00019201,2.769e-05,0.0,0 STARLINK-4656,1 53745U 22107AX  23013.78195725  .00002769  00000-0  19201-3 0  9999,2 53745  53.2191  30.8698 0001564  69.7683 290.3477 15.08843185 20845,6917.871,95.437,540.818,538.654,0.0
53745.0,STARLINK-4656,PAYLOAD,2023-01-14 10:39:52,15.08854186,0.0001703,53.2201,27.8946,79.4604,280.658,0.00037188,5.638e-05,0.0,0 STARLINK-4656,1 53745U 22107AX  23014.44435396  .00005638  00000-0  37188-3 0  9996,2 53745  53.2201  27.8946 0001703  79.4604 280.6580 15.08854186 20160,6917.837,95.437,540.88,538.524,0.0
53745.0,STARLINK-4656,PAYLOAD,2023-01-15 00:58:20,15.08837946,0.0001485,53.2192,25.2204,80.5089,279.6071,8.1741e-05,1.013e-05,0.0,0 STARLINK-4656,1 53745U 22107AX  23015.04052069  .00001013  00000-0  81741-4 0  9993,2 53745  53.2192  25.2204 0001485  80.5089 279.6071 15.08837946 20253,6917.887,95.438,540.779,538.724,0.0
53745.0,STARLINK-4656,PAYLOAD,2023-01-15 10:30:39,15.08849857,0.0001463,53.2187,23.4349,83.4249,276.691,0.00033828,5.101e-05,0.0,0 STARLINK-4656,1 53745U 22107AX  23015.43795685  .00005101  00000-0  33828-3 0  9998,2 53745  53.2187  23.4349 0001463  83.4249 276.6910 15.08849857 20313,6917.85,95.437,540.727,538.703,0.0
53745.0,STARLINK-4656,PAYLOAD,2023-01-15 20:02:58,15.0884699,0.0001474,53.2191,21.6527,86.8364,273.2797,0.00026642,3.955e-05,0.0,0 STARLINK-4656,1 53745U 22107AX  23015.83539774  .00003955  00000-0  26642-3 0  9998,2 53745  53.2191  21.6527 0001474  86.8364 273.2797 15.08846990 21157,6917.859,95.437,540.744,538.7040000000001,0.0
53745.0,STARLINK-4656,PAYLOAD,2023-01-16 10:21:25,15.08889531,0.0001414,53.2194,18.977,100.8799,259.2352,0.0017375,0.0002751,0.0,0 STARLINK-4656,1 53745U 22107AX  23016.43154507  .00027510  00000-0  17375-2 0  9997,2 53745  53.2194  18.9770 0001414 100.8799 259.2352 15.08889531 20464,6917.729,95.434,540.572,538.616,0.0
53745.0,STARLINK-4656,PAYLOAD,2023-01-16 16:42:58,15.08842961,0.0003046,53.2199,17.7865,101.2108,258.9226,0.00033706,5.081e-05,0.0,0 STARLINK-4656,1 53745U 22107AX  23016.69651600  .00005081  00000-0  33706-3 0  9997,2 53745  53.2199  17.7865 0003046 101.2108 258.9226 15.08842961 20500,6917.871,95.437,541.844,537.629,0.0
53745.0,STARLINK-4656,PAYLOAD,2023-01-16 23:04:31,15.08814006,0.0001331999999999,53.2188,16.5971,87.8127,272.3018,-0.00010537,-1.963e-05,0.0,0 STARLINK-4656,1 53745U 22107AX  23016.96147978 -.00001963  00000-0 -10537-3 0  9999,2 53745  53.2188  16.5971 0001332  87.8127 272.3018 15.08814006 20541,6917.96,95.439,540.746,538.903,0.0
53745.0,STARLINK-4656,PAYLOAD,2023-01-17 08:36:51,15.08810057,0.0001376999999999,53.2187,14.8138,74.9294,285.1851,0.001465,0.00023085,0.0,0 STARLINK-4656,1 53745U 22107AX  23017.35892955  .00023085  00000-0  14650-2 0  9991,2 53745  53.2187  14.8138 0001377  74.9294 285.1851 15.08810057 21389,6917.972,95.439,540.79,538.884,0.0
53745.0,STARLINK-4656,PAYLOAD,2023-01-17 16:33:47,15.0883242,0.0001394,53.2186,13.3268,75.4979,284.6167,0.0020701,0.00032804,0.0,0 STARLINK-4656,1 53745U 22107AX  23017.69013371  .00032804  00000-0  20701-2 0  9998,2 53745  53.2186  13.3268 0001394  75.4979 284.6167 15.08832420 21439,6917.904,95.438,540.7330000000001,538.804,0.0
53745.0,STARLINK-4656,PAYLOAD,2023-01-18 00:30:43,15.08853256,0.0001393,53.2184,11.8399,77.5321,282.5827,0.0019425999999999,0.00030775,0.0,0 STARLINK-4656,1 53745U 22107AX  23018.02133258  .00030775  00000-0  19426-2 0  9990,2 53745  53.2184  11.8399 0001393  77.5321 282.5827 15.08853256 20707,6917.84,95.437,540.669,538.741,0.0
53745.0,STARLINK-4656,PAYLOAD,2023-01-18 06:52:15,15.08878926,0.0001414,53.2183,10.6506,78.9995,281.1157,0.0026122,0.00041575,0.0,0 STARLINK-4656,1 53745U 22107AX  23018.28628788  .00041575  00000-0  26122-2 0  9996,2 53745  53.2183  10.6506 0001414  78.9995 281.1157 15.08878926 21522,6917.761,95.435,540.605,538.648,0.0
53745.0,STARLINK-4656,PAYLOAD,2023-01-18 16:24:33,15.08872512,0.0001428,53.2187,8.8664,79.2282,280.8871,0.0012509,0.00019694,0.0,0 STARLINK-4656,1 53745U 22107AX  23018.68372310  .00019694  00000-0  12509-2 0  9998,2 53745  53.2187   8.8664 0001428  79.2282 280.8871 15.08872512 20802,6917.781,95.435,540.634,538.658,0.0
53745.0,STARLINK-4656,PAYLOAD,2023-01-19 05:07:37,15.08879969,3.07e-05,53.2177,6.4874,96.9821,263.1206,0.0018292,0.00028976,0.0,0 STARLINK-4656,1 53745U 22107AX  23019.21363000  .00028976  00000-0  18292-2 0  9992,2 53745  53.2177   6.4874 0000307  96.9821 263.1206 15.08879969 20885,6917.758000000001,95.435,539.836,539.411,0.0
53745.0,STARLINK-4656,PAYLOAD,2023-01-19 08:18:23,15.08919723,0.0001082999999999,53.2177,5.8923,85.3622,274.7493,0.0033398,0.00053384,0.0,0 STARLINK-4656,1 53745U 22107AX  23019.34610322  .00053384  00000-0  33398-2 0  9993,2 53745  53.2177   5.8923 0001083  85.3622 274.7493 15.08919723 20908,6917.637,95.433,540.251,538.753,0.0
53745.0,STARLINK-4656,PAYLOAD,2023-01-19 16:15:19,15.0885549,0.0001588999999999,53.2177,4.4053,85.7935,274.3239,-0.00025608,-4.363e-05,0.0,0 STARLINK-4656,1 53745U 22107AX  23019.67730881 -.00004363  00000-0 -25608-3 0  9993,2 53745  53.2177   4.4053 0001589  85.7935 274.3239 15.08855490 20958,6917.8330000000005,95.437,540.797,538.599,0.0
53745.0,STARLINK-4656,PAYLOAD,2023-01-19 22:36:52,15.08817684,0.0001030999999999,53.2181,3.2167,94.5169,265.5941,-0.0010007999999999,-0.0001617,0.0,0 STARLINK-4656,1 53745U 22107AX  23019.94227300 -.00016170  00000-0 -10008-2 0  9996,2 53745  53.2181   3.2167 0001031  94.5169 265.5941 15.08817684 20994,6917.9490000000005,95.439,540.5269999999999,539.1,0.0
53745.0,STARLINK-4656,PAYLOAD,2023-01-20 08:09:12,15.08820213,0.0001190999999999,53.2178,1.432,94.2584,265.8544,0.0022804,0.00036171,0.0,0 STARLINK-4656,1 53745U 22107AX  23020.33972514  .00036171  00000-0  22804-2 0  9993,2 53745  53.2178   1.4320 0001191  94.2584 265.8544 15.08820213 21058,6917.941,95.439,540.63,538.982,0.0
53745.0,STARLINK-4656,PAYLOAD,2023-01-20 22:27:41,15.08838844,0.0001435,53.2173,358.756,93.2615,266.8541,0.0015581,0.00024595,0.0,0 STARLINK-4656,1 53745U 22107AX  23020.93589230  .00024595  00000-0  15581-2 0  9999,2 53745  53.2173 358.7560 0001435  93.2615 266.8541 15.08838844 21149,6917.884,95.438,540.742,538.756,0.0
53745.0,STARLINK-4656,PAYLOAD,2023-01-22 04:40:01,15.0885018,0.0001131,53.2184,353.1062,86.705,273.4071,0.001686,0.00026654,0.0,0 STARLINK-4656,1 53745U 22107AX  23022.19445648  .00026654  00000-0  16860-2 0  9992,2 53745  53.2184 353.1062 0001131  86.7050 273.4071 15.08850180 21330,6917.849,95.437,540.497,538.932,0.0
53745.0,STARLINK-4656,PAYLOAD,2023-01-23 06:06:10,15.08869766,0.0001059,53.2196,348.3487,105.8798,254.2311,0.0021447,0.00034038,0.0,0 STARLINK-4656,1 53745U 22107AX  23023.25429332  .00034038  00000-0  21447-2 0  9994,2 53745  53.2196 348.3487 0001059 105.8798 254.2311 15.08869766 21492,6917.789000000001,95.436,540.387,538.922,0.0
53745.0,STARLINK-4656,PAYLOAD,2023-01-23 14:03:06,15.08857932,0.0001143,53.2206,346.862,94.3365,265.7758,0.0010457,0.00016402,0.0,0 STARLINK-4656,1 53745U 22107AX  23023.58549306  .00016402  00000-0  10457-2 0  9998,2 53745  53.2206 346.8620 0001143  94.3365 265.7758 15.08857932 21542,6917.826,95.436,540.481,538.9,0.0
53745.0,STARLINK-4656,PAYLOAD,2023-01-24 02:46:12,15.08842967,0.0001283,53.2203,344.48400000000004,100.5485,259.5651,0.0014026,0.00022107,0.0,0 STARLINK-4656,1 53745U 22107AX  23024.11541826  .00022107  00000-0  14026-2 0  9992,2 53745  53.2203 344.4840 0001283 100.5485 259.5651 15.08842967 21629,6917.871,95.437,540.624,538.849,0.0
